NORAD_CAT_ID,OBJECT_NAME,OBJECT_TYPE,EPOCH,MEAN_MOTION,ECCENTRICITY,INCLINATION,RA_OF_ASC_NODE,ARG_OF_PERICENTER,MEAN_ANOMALY,BSTAR,MEAN_MOTION_DOT,MEAN_MOTION_DDOT,TLE_LINE0,TLE_LINE1,TLE_LINE2,SEMIMAJOR_AXIS,PERIOD,APOGEE,PERIGEE,DECAYED
51789.0,STARLINK-3639,PAYLOAD,2024-08-18 10:52:26,15.08876067,0.0002105,53.2166,20.0332,107.6322,252.49,0.0012891,0.00020308,0.0,0 STARLINK-3639,1 51789U 22017X   24231.45308516  .00020308  00000-0  12891-2 0  9992,2 51789  53.2166  20.0332 0002105 107.6322 252.4900 15.08876067138141,6917.77,95.435,541.091,538.179,0.0
51789.0,STARLINK-3639,PAYLOAD,2024-08-18 15:38:35,15.08878895,9.81e-05,53.2169,19.1407,74.9862,285.1238,0.0010708,0.00016813,0.0,0 STARLINK-3639,1 51789U 22017X   24231.65180102  .00016813  00000-0  10708-2 0  9994,2 51789  53.2169  19.1407 0000981  74.9862 285.1238 15.08878895136529,6917.762,95.435,540.305,538.948,0.0
51789.0,STARLINK-3639,PAYLOAD,2024-08-19 18:40:08,15.088624,0.0001174,53.2194,14.0906,82.1669,277.9457,0.00071618,0.00011135,0.0,0 STARLINK-3639,1 51789U 22017X   24232.77787620  .00011135  00000-0  71618-3 0  9996,2 51789  53.2194  14.0906 0001174  82.1669 277.9457 15.08862400138345,6917.812,95.436,540.489,538.865,0.0
51789.0,STARLINK-3639,PAYLOAD,2024-08-20 02:37:04,15.08839658,6.23e-05,53.2175,12.5996,64.3459,295.7598,0.00046094,7.056e-05,0.0,0 STARLINK-3639,1 51789U 22017X   24233.10907453  .00007056  00000-0  46094-3 0  9999,2 51789  53.2175  12.5996 0000623  64.3459 295.7598 15.08839658138391,6917.881,95.438,540.177,539.315,0.0
51789.0,STARLINK-3639,PAYLOAD,2024-08-20 13:44:46,15.08838581,0.0001289,53.2157,10.5189,70.6676,289.4456,1.4762e-05,-5.3e-07,0.0,0 STARLINK-3639,1 51789U 22017X   24233.57275900 -.00000053  00000-0  14762-4 0  9994,2 51789  53.2157  10.5189 0001289  70.6676 289.4456 15.08838581136815,6917.885,95.438,540.641,538.858,0.0
51789.0,STARLINK-3639,PAYLOAD,2024-08-21 13:35:35,15.08822254,0.0001542,53.2186,6.0597,66.9626,293.1529,-2.0584e-05,-6.15e-06,0.0,0 STARLINK-3639,1 51789U 22017X   24234.56637864 -.00000615  00000-0 -20584-4 0  9999,2 51789  53.2186   6.0597 0001542  66.9626 293.1529 15.08822254138618,6917.935,95.439,540.866,538.733,0.0
51789.0,STARLINK-3639,PAYLOAD,2024-08-21 15:10:58,15.08822997,0.0001626,53.2185,5.7623,65.3849,294.7313,-2.535e-06,-3.28e-06,0.0,0 STARLINK-3639,1 51789U 22017X   24234.63261945 -.00000328  00000-0 -25350-5 0  9998,2 51789  53.2185   5.7623 0001626  65.3849 294.7313 15.08822997136975,6917.932,95.439,540.922,538.673,0.0
51789.0,STARLINK-3639,PAYLOAD,2024-08-21 18:21:44,15.08828945,0.0001541,53.2188,5.1671,72.4929,287.6231,9.5639e-05,1.234e-05,0.0,0 STARLINK-3639,1 51789U 22017X   24234.76509785  .00001234  00000-0  95639-4 0  9990,2 51789  53.2188   5.1671 0001541  72.4929 287.6231 15.08828945136990,6917.914,95.438,540.845,538.713,0.0
